OBJECT_NAME,OBJECT_ID,EPOCH,MEAN_MOTION,ECCENTRICITY,INCLINATION,RA_OF_ASC_NODE,ARG_OF_PERICENTER,MEAN_ANOMALY,EPHEMERIS_TYPE,CLASSIFICATION_TYPE,NORAD_CAT_ID,ELEMENT_SET_NO,REV_AT_EPOCH,BSTAR,MEAN_MOTION_DOT,MEAN_MOTION_DDOT
STARLINK-37630,2026-119F,2026-07-22T13:08:04.534080,15.33484361,.00037576,97.2901,229.1132,329.5781,30.5243,0,U,69301,999,947,.64082678E-3,.20699E-3,0
STARLINK-37804,2026-119G,2026-07-22T19:20:03.061536,15.33457512,.00017275,97.2862,229.3695,106.5129,253.6303,0,U,69302,999,951,.41342832E-3,.13301E-3,0
STARLINK-37730,2026-119H,2026-07-22T19:16:07.871232,15.33435548,.00013246,97.2848,229.3730,94.4295,265.7099,0,U,69303,999,951,-.6388564E-5,-.281E-5,0
STARLINK-37731,2026-119J,2026-07-22T19:12:13.792032,15.33434453,.00037876,97.2838,229.3741,86.1524,274.0152,0,U,69304,999,951,.45456242E-3,.14626E-3,0
STARLINK-37734,2026-119K,2026-07-22T01:54:39.273408,15.33462440,.00016847,97.2859,228.6741,105.6847,254.4582,0,U,69305,999,940,.58650709E-3,.18918E-3,0
STARLINK-37701,2026-119L,2026-07-22T01:50:44.226528,15.33465267,.00016445,97.2845,228.6769,75.0261,285.1164,0,U,69306,999,940,.42894706E-3,.13807E-3,0
STARLINK-37732,2026-119M,2026-07-22T08:02:41.341344,15.33462202,.00012841,97.2870,228.9401,113.2679,246.8699,0,U,69307,999,944,.45480011E-3,.14644E-3,0
STARLINK-37689,2026-119N,2026-07-22T12:40:40.579680,15.33452944,.00007369,97.2847,229.1333,108.4622,251.6701,0,U,69308,999,947,.41699241E-3,.13414E-3,0
STARLINK-37619,2026-119P,2026-07-22T18:52:37.681536,15.33425372,.00009926,97.2845,229.3965,93.8925,266.2431,0,U,69309,999,951,.33181546E-3,.10646E-3,0
STARLINK-37794,2026-119Q,2026-07-22T12:32:51.105408,15.33451807,.00002871,97.2862,229.1423,80.9362,279.1913,0,U,69310,999,947,.6156633E-3,.19857E-3,0
STARLINK-37795,2026-119R,2026-07-22T12:28:55.979904,15.33468279,.00006569,97.2827,229.1413,97.3209,262.8108,0,U,69311,999,947,.82063628E-3,.26531E-3,0
STARLINK-37790,2026-119S,2026-07-22T12:25:00.919200,15.33455478,.0000265,97.2832,229.1483,164.4434,195.6817,0,U,69312,999,947,.59237574E-3,.19104E-3,0
STARLINK-37676,2026-119T,2026-07-22T12:21:07.526016,15.33456396,.00001819,97.2827,229.1493,42.4683,317.6574,0,U,69313,999,947,.74003618E-3,.239E-3,0
STARLINK-37617,2026-119U,2026-07-22T12:17:11.279904,15.33457938,.00002799,97.2832,229.1554,103.6913,256.4361,0,U,69314,999,947,.66960987E-3,.21613E-3,0
STARLINK-37627,2026-119V,2026-07-22T07:31:22.160352,15.33452585,.00011672,97.2852,228.9681,114.9841,245.1523,0,U,69315,999,944,.56178844E-3,.18109E-3,0
STARLINK-37738,2026-119W,2026-07-22T12:09:21.464352,15.33453041,.00003521,97.2830,229.1614,97.5308,262.5975,0,U,69316,999,947,.10175034E-2,.32925E-3,0
STARLINK-37799,2026-119X,2026-07-22T19:55:17.058720,15.33455107,.00009947,97.2868,229.4914,68.1208,292.0141,0,U,69317,999,827,.36378569E-3,.11691E-3,0
STARLINK-37802,2026-119Y,2026-07-22T01:03:45.293472,15.33461592,.00023999,97.2874,228.7226,146.3573,213.7823,0,U,69318,999,940,.68356799E-3,.2207E-3,0
STARLINK-37803,2026-119Z,2026-07-22T19:47:27.377088,15.33439065,.0001512,97.2865,229.4972,105.9245,254.2164,0,U,69319,999,827,.61240684E-3,.19744E-3,0
GUOWANG TEST OBJECT A,2026-120A,2026-07-22T12:41:09.844224,15.33440466,.00153899,54.9971,229.1870,50.4617,309.7767,0,U,69320,999,812,.1892332E-3,.5848E-4,0
GUOWANG TEST OBJECT B,2026-120B,2026-07-22T08:06:36.700128,15.39237984,.00148898,54.9961,229.4071,51.9352,308.3017,0,U,69321,999,810,.24934493E-3,.9485E-4,0
GUOWANG TEST OBJECT C,2026-120C,2026-07-22T09:29:38.747904,15.38552902,.00161341,54.9980,229.0658,56.9722,303.2854,0,U,69322,999,811,.39501876E-3,.14936E-3,0
GUOWANG TEST OBJECT D,2026-120D,2026-07-22T18:38:37.096800,15.34198542,.00148547,54.9955,227.9439,68.1573,292.1031,0,U,69323,999,816,.1808001E-3,.571E-4,0
QIANFAN-163,2026-121A,2026-07-08T23:20:22.023168,13.53894414,.00204807,89.0049,298.3591,118.5630,241.7588,0,U,69325,999,511,-.6639878E-5,.8E-7,0
QIANFAN-164,2026-121B,2026-07-13T16:07:09.757344,13.49695561,.00228451,89.0183,297.8725,112.6356,247.7213,0,U,69326,999,574,.78131509E-4,.62E-6,0
SZ-22 MODULE,2025-272C,2026-07-22T18:00:41.935104,15.61472771,.00078155,41.4798,105.6940,329.5796,30.4589,0,U,69328,999,888,.25378593E-3,.22087E-3,0
STARLINK-37733,2026-122A,2026-07-22T07:56:22.724448,15.33451073,.00013246,97.2849,232.7378,94.7152,265.4242,0,U,69329,999,757,.64870813E-3,.2093E-3,0
STARLINK-37772,2026-122B,2026-07-22T07:52:27.776928,15.33453751,.00014456,97.2857,232.7431,109.2074,250.9325,0,U,69330,999,757,.37061317E-3,.11912E-3,0
STARLINK-37768,2026-122C,2026-07-22T12:30:25.969824,15.33491348,.00014289,97.2839,232.9395,117.4986,242.6403,0,U,69331,999,760,.84944903E-3,.27489E-3,0
STARLINK-37833,2026-122D,2026-07-22T01:28:45.839424,15.33463030,.00004758,97.2867,232.4924,72.6725,287.4570,0,U,69332,999,753,.67365872E-3,.21748E-3,0
