STARLINK-37630          
1 69301U 26119F   26203.54727470  .00020699  00000+0  64083-3 0  9996
2 69301  97.2901 229.1132 0003757 329.5781  30.5243 15.33484361  9471
STARLINK-37804          
1 69302U 26119G   26203.80559099  .00013301  00000+0  41343-3 0  9992
2 69302  97.2862 229.3695 0001727 106.5129 253.6303 15.33457512  9516
STARLINK-37730          
1 69303U 26119H   26203.80286888 -.00000281  00000+0 -63886-5 0  9999
2 69303  97.2848 229.3730 0001324  94.4295 265.7099 15.33435548  9514
STARLINK-37731          
1 69304U 26119J   26203.80015963  .00014626  00000+0  45456-3 0  9991
2 69304  97.2838 229.3741 0003787  86.1524 274.0152 15.33434453  9511
STARLINK-37734          
1 69305U 26119K   26203.07962122  .00018918  00000+0  58651-3 0  9998
2 69305  97.2859 228.6741 0001684 105.6847 254.4582 15.33462440  9400
STARLINK-37701          
1 69306U 26119L   26203.07690077  .00013807  00000+0  42895-3 0  9991
2 69306  97.2845 228.6769 0001644  75.0261 285.1164 15.33465267  9409
STARLINK-37732          
1 69307U 26119M   26203.33520071  .00014644  00000+0  45480-3 0  9990
2 69307  97.2870 228.9401 0001284 113.2679 246.8699 15.33462202  9449
STARLINK-37689          
1 69308U 26119N   26203.52824745  .00013414  00000+0  41699-3 0  9999
2 69308  97.2847 229.1333 0000736 108.4622 251.6701 15.33452944  9479
STARLINK-37619          
1 69309U 26119P   26203.78654724  .00010646  00000+0  33182-3 0  9998
2 69309  97.2845 229.3965 0000992  93.8925 266.2431 15.33425372  9510
STARLINK-37794          
1 69310U 26119Q   26203.52281372  .00019857  00000+0  61566-3 0  9997
2 69310  97.2862 229.1423 0000287  80.9362 279.1913 15.33451807  9472
STARLINK-37795          
1 69311U 26119R   26203.52009236  .00026531  00000+0  82064-3 0  9998
2 69311  97.2827 229.1413 0000656  97.3209 262.8108 15.33468279  9471
STARLINK-37790          
1 69312U 26119S   26203.51737175  .00019104  00000+0  59238-3 0  9993
2 69312  97.2832 229.1483 0000265 164.4434 195.6817 15.33455478  9474
STARLINK-37676          
1 69313U 26119T   26203.51467044  .00023900  00000+0  74004-3 0  9996
2 69313  97.2827 229.1493 0000181  42.4683 317.6574 15.33456396  9474
STARLINK-37617          
1 69314U 26119U   26203.51193611  .00021613  00000+0  66961-3 0  9995
2 69314  97.2832 229.1554 0000279 103.6913 256.4361 15.33457938  9470
STARLINK-37627          
1 69315U 26119V   26203.31345093  .00018109  00000+0  56179-3 0  9993
2 69315  97.2852 228.9681 0001167 114.9841 245.1523 15.33452585  9448
STARLINK-37738          
1 69316U 26119W   26203.50649843  .00032925  00000+0  10175-2 0  9992
2 69316  97.2830 229.1614 0000352  97.5308 262.5975 15.33453041  9478
STARLINK-37799          
1 69317U 26119X   26203.83005855  .00011691  00000+0  36379-3 0  9990
2 69317  97.2868 229.4914 0000994  68.1208 292.0141 15.33455107  8276
STARLINK-37802          
1 69318U 26119Y   26203.04427423  .00022070  00000+0  68357-3 0  9997
2 69318  97.2874 228.7226 0002399 146.3573 213.7823 15.33461592  9405
STARLINK-37803          
1 69319U 26119Z   26203.82462242  .00019744  00000+0  61241-3 0  9991
2 69319  97.2865 229.4972 0001512 105.9245 254.2164 15.33439065  8277
GUOWANG TEST OBJECT A   
1 69320U 26120A   26203.52858616  .00005848  00000+0  18923-3 0  9995
2 69320  54.9971 229.1870 0015389  50.4617 309.7767 15.33440466  8121
GUOWANG TEST OBJECT B   
1 69321U 26120B   26203.33792477  .00009485  00000+0  24934-3 0  9997
2 69321  54.9961 229.4071 0014889  51.9352 308.3017 15.39237984  8109
GUOWANG TEST OBJECT C   
1 69322U 26120C   26203.39558736  .00014936  00000+0  39502-3 0  9996
2 69322  54.9980 229.0658 0016134  56.9722 303.2854 15.38552902  8112
GUOWANG TEST OBJECT D   
1 69323U 26120D   26203.77681825  .00005710  00000+0  18080-3 0  9993
2 69323  54.9955 227.9439 0014854  68.1573 292.1031 15.34198542  8165
QIANFAN-163             
1 69325U 26121A   26189.97247712  .00000008  00000+0 -66399-5 0  9998
2 69325  89.0049 298.3591 0020480 118.5630 241.7588 13.53894414  5116
QIANFAN-164             
1 69326U 26121B   26194.67164071  .00000062  00000+0  78132-4 0  9994
2 69326  89.0183 297.8725 0022845 112.6356 247.7213 13.49695561  5743
SZ-22 MODULE            
1 69328U 25272C   26203.75048536  .00022087  00000+0  25379-3 0  9994
2 69328  41.4798 105.6940 0007815 329.5796  30.4589 15.61472771  8884
STARLINK-37733          
1 69329U 26122A   26203.33081857  .00020930  00000+0  64871-3 0  9992
2 69329  97.2849 232.7378 0001324  94.7152 265.4242 15.33451073  7576
STARLINK-37772          
1 69330U 26122B   26203.32809927  .00011912  00000+0  37061-3 0  9990
2 69330  97.2857 232.7431 0001445 109.2074 250.9325 15.33453751  7572
STARLINK-37768          
1 69331U 26122C   26203.52113391  .00027489  00000+0  84945-3 0  9995
2 69331  97.2839 232.9395 0001428 117.4986 242.6403 15.33491348  7601
STARLINK-37833          
1 69332U 26122D   26203.06164166  .00021748  00000+0  67366-3 0  9991
2 69332  97.2867 232.4924 0000475  72.6725 287.4570 15.33463030  7531
